OBJECT_NAME,OBJECT_ID,EPOCH,MEAN_MOTION,ECCENTRICITY,INCLINATION,RA_OF_ASC_NODE,ARG_OF_PERICENTER,MEAN_ANOMALY,EPHEMERIS_TYPE,CLASSIFICATION_TYPE,NORAD_CAT_ID,ELEMENT_SET_NO,REV_AT_EPOCH,BSTAR,MEAN_MOTION_DOT,MEAN_MOTION_DDOT
GONETS-M 19,2020-068C,2026-06-25T14:24:55.753056,12.42892452,.0013966,82.4972,341.8344,32.4274,327.7661,0,U,46488,999,26029,.58802952E-3,.91E-6,0
DEKART,2020-068H,2026-06-25T14:28:02.146368,15.37524860,.00071908,97.8740,186.4759,248.1678,111.8801,0,U,46493,999,31706,.38964334E-3,.14274E-3,0
NORBI,2020-068J,2026-06-25T13:22:15.777120,15.48785789,.00059101,97.8627,193.2603,209.6922,150.3992,0,U,46494,999,31750,.49103305E-3,.26339E-3,0
SALSAT,2020-068K,2026-06-25T12:25:27.555456,15.29908924,.00078024,97.8852,180.0899,272.5783,87.4563,0,U,46495,999,31663,.3089847E-3,.8873E-4,0
ICEYE-X6,2020-068M,2026-06-25T13:42:28.180800,15.04567614,.00090951,98.0978,170.6437,69.0324,291.1873,0,U,46497,999,31449,.22863034E-3,.3142E-4,0
NETSAT-4,2020-068U,2026-06-25T11:38:42.015264,15.44122705,.00031957,97.8604,185.3934,293.5185,66.5726,0,U,46504,999,31705,.47718583E-3,.21779E-3,0
NETSAT-3,2020-068V,2026-06-25T13:30:15.225408,15.42949452,.00032408,97.8651,183.6828,321.9477,38.1540,0,U,46505,999,31697,.52136717E-3,.22885E-3,0
NETSAT-1,2020-068W,2026-06-25T13:06:32.995008,15.34821083,.00039948,97.8743,177.8976,5.0239,355.1042,0,U,46506,999,31658,.45609478E-3,.15327E-3,0
NETSAT-2,2020-068X,2026-06-25T12:19:36.434496,15.46335494,.0002117,97.8617,185.3494,356.4581,3.6652,0,U,46507,999,31702,.56634693E-3,.27912E-3,0
TIANQI-6,2020-076D,2026-06-25T13:12:50.512032,15.07234382,.00109141,35.0003,357.1339,246.2178,113.7387,0,U,46810,999,30984,.25359372E-3,.3878E-4,0
KSM1-C,2020-081B,2026-06-25T14:18:01.886688,15.26867732,.00036108,36.8967,7.0251,293.1755,66.8614,0,U,46906,999,31045,.36287337E-3,.9721E-4,0
KSM1-D,2020-081C,2026-06-25T14:36:36.951264,15.24832585,.00047441,36.8980,16.1187,316.6711,43.3664,0,U,46907,999,31038,.35716928E-3,.8992E-4,0
KSM1-A,2020-081H,2026-06-25T14:28:54.421824,15.26081396,.00033732,36.8981,9.4353,357.7141,2.3592,0,U,46912,999,31046,.35909933E-3,.9389E-4,0
R2,2020-081J,2026-06-24T23:21:26.016192,15.25528108,.00083125,36.8985,13.3440,341.5515,18.4932,0,U,46913,999,31317,.32743435E-3,.8415E-4,0
KSM1-B,2020-081K,2026-06-25T14:43:17.169024,15.24622167,.00060008,36.9036,16.7157,340.5103,19.5415,0,U,46914,999,31347,.37948554E-3,.9501E-4,0
GONETS-M 20,2020-091A,2026-06-25T14:51:38.672640,12.42894011,.00215724,82.5046,297.1943,159.8235,200.3702,0,U,47227,999,25212,.14924842E-3,.31E-6,0
GONETS-M 21,2020-091B,2026-06-25T14:14:03.856416,12.42886925,.00151737,82.4971,295.9124,172.6883,187.4421,0,U,47228,999,25211,-.22805177E-3,-.22E-6,0
GONETS-M 22,2020-091C,2026-06-25T13:35:16.598112,12.42893215,.00224942,82.5028,296.8318,155.4526,204.7630,0,U,47229,999,25206,.16615894E-3,.33E-6,0
CUBEL,2021-006AM,2026-06-25T09:45:42.558048,15.41481095,.00079045,97.2330,226.9136,137.1577,223.0288,0,U,47448,999,30102,.39634506E-3,.16554E-3,0
ARKTIKA-M 1,2021-016A,2026-06-24T11:15:18.372960,2.00620016,.7291,63.2470,56.5720,269.9787,14.5750,0,U,47719,999,3893,0,-.298E-5,0
STARLINK-2342,2021-021Z,2026-06-25T12:18:53.180928,15.83770858,.00025313,53.1533,106.2560,186.5632,173.5359,0,U,47883,999,29322,.99300447E-3,.229742E-2,0
GRUS-1B,2021-022C,2026-06-25T15:43:52.481856,14.98734975,.00146752,97.5379,59.5752,294.1015,65.8673,0,U,47934,999,28716,.23958318E-4,.231E-5,0
UNISAT-7,2021-022P,2026-06-25T06:41:15.216576,15.40669367,.00105308,97.3885,81.2877,54.6360,305.5869,0,U,47945,999,29110,.42390519E-3,.17254E-3,0
GLOBAL-9,2021-023G,2026-06-25T12:28:49.355616,15.46885538,.00037411,44.9792,203.6803,4.6600,355.4325,0,U,47971,999,29623,.42902573E-3,.21767E-3,0
AII-BRAVO,2021-034C,2026-06-25T09:46:03.372672,15.03537760,.00042898,97.5629,231.1311,217.9322,142.1602,0,U,48270,999,28085,.32966397E-3,.4441E-4,0
TYVAK-182A,2021-034D,2026-06-25T02:28:23.377440,15.06233220,.00044929,97.5728,234.8828,311.7111,48.3731,0,U,48271,999,28102,.39689188E-3,.5762E-4,0
CSS (TIANHE),2021-035A,2026-06-25T13:12:19.946304,15.61164628,.00078417,41.4688,271.0950,148.6919,211.4388,0,U,48274,999,29447,.33184732E-3,.28666E-3,0
TYVAK-0130,2021-041BF,2026-06-24T21:30:37.339200,15.27658123,.0009874,52.9951,350.2823,187.6745,172.4103,0,U,48606,999,28156,.32527516E-3,.8579E-4,0
