GONETS-M 19             
1 46488U 20068C   26176.60064529  .00000091  00000+0  58803-3 0  9996
2 46488  82.4972 341.8344 0013966  32.4274 327.7661 12.42892452260298
DEKART                  
1 46493U 20068H   26176.60280262  .00014274  00000+0  38964-3 0  9990
2 46493  97.8740 186.4759 0007190 248.1678 111.8801 15.37524860317064
NORBI                   
1 46494U 20068J   26176.55712705  .00026339  00000+0  49103-3 0  9999
2 46494  97.8627 193.2603 0005910 209.6922 150.3992 15.48785789317504
SALSAT                  
1 46495U 20068K   26176.51768004  .00008873  00000+0  30898-3 0  9993
2 46495  97.8852 180.0899 0007802 272.5783  87.4563 15.29908924316636
ICEYE-X6                
1 46497U 20068M   26176.57115950  .00003142  00000+0  22863-3 0  9994
2 46497  98.0978 170.6437 0009095  69.0324 291.1873 15.04567614314499
NETSAT-4                
1 46504U 20068U   26176.48520851  .00021779  00000+0  47719-3 0  9996
2 46504  97.8604 185.3934 0003195 293.5185  66.5726 15.44122705317058
NETSAT-3                
1 46505U 20068V   26176.56267622  .00022885  00000+0  52137-3 0  9999
2 46505  97.8651 183.6828 0003240 321.9477  38.1540 15.42949452316978
NETSAT-1                
1 46506U 20068W   26176.54621522  .00015327  00000+0  45609-3 0  9990
2 46506  97.8743 177.8976 0003994   5.0239 355.1042 15.34821083316588
NETSAT-2                
1 46507U 20068X   26176.51361614  .00027912  00000+0  56635-3 0  9995
2 46507  97.8617 185.3494 0002117 356.4581   3.6652 15.46335494317028
TIANQI-6                
1 46810U 20076D   26176.55058463  .00003878  00000+0  25359-3 0  9994
2 46810  35.0003 357.1339 0010914 246.2178 113.7387 15.07234382309847
KSM1-C                  
1 46906U 20081B   26176.59585517  .00009721  00000+0  36287-3 0  9990
2 46906  36.8967   7.0251 0003610 293.1755  66.8614 15.26867732310454
KSM1-D                  
1 46907U 20081C   26176.60876101  .00008992  00000+0  35717-3 0  9991
2 46907  36.8980  16.1187 0004744 316.6711  43.3664 15.24832585310384
KSM1-A                  
1 46912U 20081H   26176.60340766  .00009389  00000+0  35910-3 0  9996
2 46912  36.8981   9.4353 0003373 357.7141   2.3592 15.26081396310463
R2                      
1 46913U 20081J   26175.97321778  .00008415  00000+0  32743-3 0  9998
2 46913  36.8985  13.3440 0008312 341.5515  18.4932 15.25528108313176
KSM1-B                  
1 46914U 20081K   26176.61339316  .00009501  00000+0  37949-3 0  9998
2 46914  36.9036  16.7157 0006000 340.5103  19.5415 15.24622167313471
GONETS-M 20             
1 47227U 20091A   26176.61919760  .00000031  00000+0  14925-3 0  9992
2 47227  82.5046 297.1943 0021572 159.8235 200.3702 12.42894011252122
GONETS-M 21             
1 47228U 20091B   26176.59310019 -.00000022  00000+0 -22805-3 0  9990
2 47228  82.4971 295.9124 0015173 172.6883 187.4421 12.42886925252115
GONETS-M 22             
1 47229U 20091C   26176.56616433  .00000033  00000+0  16616-3 0  9990
2 47229  82.5028 296.8318 0022494 155.4526 204.7630 12.42893215252061
CUBEL                   
1 47448U 21006AM  26176.40674257  .00016554  00000+0  39635-3 0  9992
2 47448  97.2330 226.9136 0007904 137.1577 223.0288 15.41481095301022
ARKTIKA-M 1             
1 47719U 21016A   26175.46896265 -.00000298  00000+0  00000+0 0  9993
2 47719  63.2470  56.5720 7291000 269.9787  14.5750  2.00620016 38936
STARLINK-2342           
1 47883U 21021Z   26176.51311552  .00229742  00000+0  99300-3 0  9990
2 47883  53.1533 106.2560 0002531 186.5632 173.5359 15.83770858293227
GRUS-1B                 
1 47934U 21022C   26176.65546854  .00000231  00000+0  23958-4 0  9995
2 47934  97.5379  59.5752 0014675 294.1015  65.8673 14.98734975287163
UNISAT-7                
1 47945U 21022P   26176.27864834  .00017254  00000+0  42391-3 0  9990
2 47945  97.3885  81.2877 0010530  54.6360 305.5869 15.40669367291103
GLOBAL-9                
1 47971U 21023G   26176.52001569  .00021767  00000+0  42903-3 0  9999
2 47971  44.9792 203.6803 0003741   4.6600 355.4325 15.46885538296230
AII-BRAVO               
1 48270U 21034C   26176.40698348  .00004441  00000+0  32966-3 0  9996
2 48270  97.5629 231.1311 0004289 217.9322 142.1602 15.03537760280858
TYVAK-182A              
1 48271U 21034D   26176.10304835  .00005762  00000+0  39689-3 0  9995
2 48271  97.5728 234.8828 0004492 311.7111  48.3731 15.06233220281024
CSS (TIANHE)            
1 48274U 21035A   26176.55023086  .00028666  00000+0  33185-3 0  9997
2 48274  41.4688 271.0950 0007841 148.6919 211.4388 15.61164628294473
TYVAK-0130              
1 48606U 21041BF  26175.89626550  .00008579  00000+0  32528-3 0  9995
2 48606  52.9951 350.2823 0009874 187.6745 172.4103 15.27658123281566
